[{"OBJECT_NAME":"TIANHUI 5C","OBJECT_ID":"2024-126A","EPOCH":"2026-03-09T13:08:56.446656","MEAN_MOTION":14.87585548,"ECCENTRICITY":0.0001564,"INCLINATION":97.8217,"RA_OF_ASC_NODE":77.5195,"ARG_OF_PERICENTER":89.5456,"MEAN_ANOMALY":270.594,"EPHEMERIS_TYPE":0,"CLASSIFICATION_TYPE":"U","NORAD_CAT_ID":60211,"ELEMENT_SET_NO":999,"REV_AT_EPOCH":9107,"BSTAR":7.97e-5,"MEAN_MOTION_DOT":6.7e-6,"MEAN_MOTION_DDOT":0},{"OBJECT_NAME":"STARLINK-33997","OBJECT_ID":"2025-098C","EPOCH":"2026-03-09T22:20:46.078368","MEAN_MOTION":14.96551413,"ECCENTRICITY":0.00068477,"INCLINATION":70.0004,"RA_OF_ASC_NODE":274.0384,"ARG_OF_PERICENTER":77.5305,"MEAN_ANOMALY":282.6619,"EPHEMERIS_TYPE":0,"CLASSIFICATION_TYPE":"U","NORAD_CAT_ID":63928,"ELEMENT_SET_NO":999,"REV_AT_EPOCH":4660,"BSTAR":-0.062237161,"MEAN_MOTION_DOT":-0.00663337,"MEAN_MOTION_DDOT":0}]
